OBJECT_NAME,OBJECT_ID,EPOCH,MEAN_MOTION,ECCENTRICITY,INCLINATION,RA_OF_ASC_NODE,ARG_OF_PERICENTER,MEAN_ANOMALY,EPHEMERIS_TYPE,CLASSIFICATION_TYPE,NORAD_CAT_ID,ELEMENT_SET_NO,REV_AT_EPOCH,BSTAR,MEAN_MOTION_DOT,MEAN_MOTION_DDOT
CUBEBUG-2 (LO-74),2013-066AA,2026-07-16T09:37:07.053312,14.93971621,.00555728,97.8916,146.5092,291.2614,68.2676,0,U,39440,999,68135,.1913302E-3,.2037E-4,0
FUNCUBE-1 (AO-73),2013-066AE,2026-07-16T11:39:15.440832,15.09827473,.00379858,97.8291,169.5530,103.5264,257.0201,0,U,39444,999,68408,.24422005E-3,.3947E-4,0
UWE-3,2013-066AG,2026-07-16T10:09:05.539392,14.97203974,.00475569,97.8715,153.7003,220.3084,139.4608,0,U,39446,999,68195,.17415347E-3,.1997E-4,0
UNISAT-6,2014-033C,2026-07-16T09:05:34.324800,14.88368938,.00440932,97.7910,349.5845,333.7883,26.1102,0,U,40012,999,65050,.11779615E-3,.1053E-4,0
DUCHIFAT-1,2014-033M,2026-07-16T03:00:49.893408,15.71200075,.00027704,98.0416,260.5020,239.6355,120.4633,0,U,40021,999,66028,.68520431E-3,.87055E-3,0
QB50P1,2014-033R,2026-07-16T11:22:42.917376,15.18676671,.00104182,98.0963,210.6830,120.8917,239.3341,0,U,40025,999,65747,.19606865E-3,.3992E-4,0
LILACSAT-2,2015-049K,2026-07-16T14:38:03.332256,15.52392101,.00084845,97.4621,235.5839,137.3533,222.8380,0,U,40908,999,60031,.1848233E-3,.11192E-3,0
FOX-1A (AO-85),2015-058D,2026-07-16T07:51:44.998560,14.91092003,.01324559,64.7725,188.4142,45.3781,315.8042,0,U,40967,999,11791,.15015652E-3,.1582E-4,0
CAS-2T & KS-1Q,2016-066G,2026-07-16T04:33:34.557984,14.44771379,.03421967,98.3813,272.5943,41.7454,320.9311,0,U,41847,999,50898,.76374831E-4,.484E-5,0
RADFXSAT (FOX-1B),2017-073E,2026-07-16T13:46:33.193056,15.13073089,.01483124,97.4661,64.1900,226.6684,132.2108,0,U,43017,999,46983,.19535439E-3,.4454E-4,0
DIWATA-2B,2018-084H,2026-07-16T13:52:15.384576,15.00566575,.00127522,98.1210,35.0731,80.2675,279.9987,0,U,43678,999,42062,.92242091E-4,.11E-4,0
ES'HAIL 2,2018-090A,2026-07-16T13:26:39.322176,1.00271679,.00022573,0.0155,59.3194,99.5849,2.9240,0,U,43700,999,2797,0,.133E-5,0
FOX-1CLIFF (AO-95),2018-099N,2026-07-16T10:26:08.193984,15.27288246,.00073516,97.4366,257.5826,234.6280,125.4273,0,U,43770,999,41768,.22272899E-3,.5883E-4,0
ITASAT,2018-099AE,2026-07-16T14:16:39.842112,15.19391697,.00109372,97.4010,248.5237,244.9226,115.0874,0,U,43786,999,41737,.1520014E-3,.3153E-4,0
JY1SAT (JO-97),2018-099AX,2026-07-16T10:44:30.107616,15.34543240,.00069838,97.4111,260.3993,154.4800,205.6789,0,U,43803,999,41811,.28295596E-3,.9397E-4,0
UWE-4,2018-111E,2026-07-15T08:27:21.725856,15.47824446,.00062889,97.5850,126.0767,193.5981,166.5100,0,U,43880,999,41513,.39288701E-3,.2035E-3,0
TIANYAN 01,2019-093C,2026-07-16T14:16:05.478240,14.86560063,.00134916,97.7525,269.1082,357.0322,3.0811,0,U,44881,999,35578,-.8515525E-5,-.129E-5,0
RS-44 & BREEZE-KM R/B,2019-096E,2026-07-16T09:37:33.603168,12.79748917,.02185255,82.5242,320.2932,76.1855,286.3458,0,U,44909,999,30608,.2525832E-5,.14E-6,0
SALSAT,2020-068K,2026-07-16T05:58:34.584960,15.30180346,.00093214,97.8856,202.0925,188.9749,171.1325,0,U,46495,999,31980,.1336874E-3,.3822E-4,0
XW-3 (CAS-9),2021-131B,2026-07-16T15:02:44.513376,14.41383076,.00045117,98.4994,289.8579,27.1032,333.0392,0,U,50466,999,23935,.14021507E-3,.41E-5,0
GREENCUBE (IO-117),2022-080E,2026-07-16T06:55:09.765408,6.42583343,.00090797,70.1408,288.1261,283.0875,76.8771,0,U,53109,999,9393,0,-.3E-7,0
UMKA 1 (RS40S),2023-091G,2026-07-16T13:36:56.523168,15.21129782,.0012912,97.5034,256.1549,24.9873,335.1985,0,U,57172,999,16847,.13969123E-3,.3044E-4,0
CUBESX-HSE 3 (RS42S),2023-091N,2026-07-16T13:46:47.501760,15.31904666,.00095142,97.5075,263.5449,356.9824,3.1359,0,U,57178,999,16892,.23459489E-3,.7156E-4,0
MONITOR-3 (RS58S),2023-091Q,2026-07-16T14:23:08.624832,15.28388869,.00108398,97.5066,261.2702,4.8327,355.3015,0,U,57180,999,16878,.21240625E-3,.5803E-4,0
MONITOR-4 (RS57S),2023-091S,2026-07-16T13:50:37.461408,15.28475205,.00108351,97.5060,261.2203,5.1212,355.0136,0,U,57182,999,16878,.20837583E-3,.5707E-4,0
MONITOR-2 (RS39S),2023-091U,2026-07-16T15:01:31.647072,15.19161694,.00112388,97.5054,255.7207,19.2596,340.9061,0,U,57184,999,16842,.11941562E-3,.2444E-4,0
SVYATOBOR 1 (RS60S),2023-091X,2026-07-16T14:47:04.820064,15.27076885,.00086073,97.5074,261.6029,359.5025,0.6203,0,U,57187,999,16880,.17779274E-3,.465E-4,0
VIZARD-METEO (RS38S),2023-091Z,2026-07-16T14:01:30.245376,15.36900981,.00055362,97.5077,267.6755,333.6471,26.4490,0,U,57189,999,16920,.26178463E-3,.9366E-4,0
POLYTECH-UNIVERSE 3 (RS46S),2023-091AB,2026-07-16T14:00:04.445856,15.19374070,.00159608,97.5031,255.1826,33.2341,326.9892,0,U,57191,999,16841,.12562587E-3,.2595E-4,0
UTMN 2 (RS27S),2023-091AP,2026-07-16T12:15:19.049760,15.32720728,.00065801,97.5071,265.1498,345.0643,15.0403,0,U,57203,999,16903,.22492825E-3,.7031E-4,0
